STARLINK-34131          
1 64182U 25113N   25173.50951309  .00063642  00000+0  11419-2 0  9991
2 64182  53.1594 221.5411 0001748  70.7554 289.3645 15.49336912  5111
STARLINK-34188          
1 64183U 25113P   25173.58335648 -.01815645  00000+0 -45429-1 0  9990
2 64183  53.1596 221.2314 0001576  66.5029 324.8147 15.42716934  5214
STARLINK-34197          
1 64184U 25113Q   25173.58335648  .00068911  00000+0  17198-2 0  9997
2 64184  53.1600 221.2722 0001164  79.5390 290.6203 15.39574452  5274
STARLINK-34063          
1 64185U 25113R   25173.50847985  .00049287  00000+0  88750-3 0  9990
2 64185  53.1593 221.5332 0001075  82.4880 277.6252 15.49346010  5204
STARLINK-34200          
1 64186U 25113S   25173.50814314  .00041879  00000+0  75598-3 0  9996
2 64186  53.1597 221.5322 0002260  73.1782 286.9475 15.49346640  5202
STARLINK-33934          
1 64187U 25113T   25173.58335648 -.01843237  00000+0 -47691-1 0  9995
2 64187  53.1593 221.2277 0001317  75.2207 316.7260 15.41775512  5178
STARLINK-33929          
1 64188U 25113U   25173.50745184  .00053205  00000+0  95754-3 0  9998
2 64188  53.1593 221.5258 0001543  69.1080 291.0095 15.49327580  5204
STARLINK-33872          
1 64189U 25113V   25173.50710601  .00040456  00000+0  73081-3 0  9998
2 64189  53.1592 221.5249 0001001  77.7940 282.3181 15.49342965  5015
STARLINK-34214          
1 64190U 25113W   25172.91668981  .00047687  00000+0  86132-3 0  9991
2 64190  53.1601 224.3421 0001223  90.5919 216.5195 15.49273307  5103
STARLINK-34222          
1 64191U 25113X   25173.50642273  .00044097  00000+0  79518-3 0  9996
2 64191  53.1591 221.5186 0001828  75.0221 285.0990 15.49353887  5111
STARLINK-34265          
1 64192U 25113Y   25173.58335648 -.01806812  00000+0 -43912-1 0  9991
2 64192  53.1588 221.1843 0001185  79.8049 334.2670 15.43560805  5239
STARLINK-34245          
1 64193U 25113Z   25173.58335648 -.01531100  00000+0 -34374-1 0  9999
2 64193  53.1597 221.1577 0000856  75.1512 352.2402 15.45863023  5178
STARLINK-34237          
1 64194U 25113AA  25173.56989254  .00044651  00000+0  80623-3 0  9993
2 64194  53.1592 221.2038 0000663 165.8867 194.2160 15.49311163  5120
STARLINK-33857          
1 64195U 25113AB  25172.91668981  .00048042  00000+0  86756-3 0  9994
2 64195  53.1599 224.3237 0001072  91.1920 225.4968 15.49275713  5065
STARLINK-34173          
1 64196U 25113AC  25173.56938201  .00054538  00000+0  10267-2 0  9992
2 64196  53.1591 221.1996 0002842  69.5274 290.6039 15.48026625  5217
SHIJIAN-26 (SJ-26)      
1 64199U 25115A   25173.53833247  .00003993  00000+0  17982-3 0  9999
2 64199  97.4909 248.8728 0011169 165.3742 194.7819 15.21602814  3703
CZ-4B DEB               
1 64200U 25115B   25172.86134971  .00022664  00000+0  12752-2 0  9990
2 64200  97.5237 247.8813 0061287 116.1938 244.5612 15.11635636  3579
CZ-4B R/B               
1 64201U 25115C   25173.59668396  .00054882  30924-5  30785-3 0  9993
2 64201  97.4324 250.2996 0145646 286.1086  72.4181 15.65736146  3790
NAVSTAR 84 (USA 545)    
1 64202U 25116A   25173.35947699 -.00000073  00000+0  00000+0 0  9998
2 64202  54.9737  45.6433 0001426 300.1243 240.3648  2.00570249   659
STARLINK-33966          
1 64203U 25117A   25173.58335648 -.01636215  00000+0 -25445-1 0  9997
2 64203  53.1589 172.6345 0000696  88.4308 281.2997 15.56268509  3602
STARLINK-34331          
1 64204U 25117B   25173.58335648 -.01634384  00000+0 -25416-1 0  9991
2 64204  53.1588 172.6307 0000599  74.6958 296.9518 15.56266496  3605
STARLINK-34251          
1 64205U 25117C   25173.58335648 -.01636209  00000+0 -25444-1 0  9991
2 64205  53.1589 172.6263 0000773  73.4376 300.1251 15.56268834  3603
STARLINK-34311          
1 64206U 25117D   25173.58335648 -.01636894  00000+0 -25457-1 0  9996
2 64206  53.1589 172.6222 0000731  70.3045 305.1764 15.56267945  3619
STARLINK-34324          
1 64207U 25117E   25173.58335648 -.01635090  00000+0 -25426-1 0  9990
2 64207  53.1590 172.6139 0000851  67.5254 311.7889 15.56266800  3601
STARLINK-34327          
1 64208U 25117F   25173.58335648 -.01637613  00000+0 -25466-1 0  9998
2 64208  53.1590 172.6179 0001015  72.6289 304.7665 15.56269214  3598
STARLINK-33944          
1 64209U 25117G   25173.58335648 -.01634449  00000+0 -25414-1 0  9996
2 64209  53.1590 172.6098 0000902  70.9219 310.3087 15.56267362  3602
STARLINK-34310          
1 64210U 25117H   25173.58335648 -.01632092  00000+0 -25374-1 0  9995
2 64210  53.1589 172.6052 0000833  70.1576 312.9901 15.56267169  3612
STARLINK-34258          
1 64211U 25117J   25173.58335648 -.01630512  00000+0 -25347-1 0  9991
2 64211  53.1591 172.6016 0000900  69.6471 315.4172 15.56266328  3612
STARLINK-34284          
1 64212U 25117K   25173.58335648 -.01626554  00000+0 -25279-1 0  9997
2 64212  53.1586 172.5976 0000843  70.4990 316.4801 15.56266451  3610
STARLINK-34332          
1 64213U 25117L   25173.58335648 -.01626475  00000+0 -25282-1 0  9994
2 64213  53.1586 172.5936 0000650  78.0268 310.8737 15.56263358  3603
STARLINK-34283          
1 64214U 25117M   25173.58335648 -.01617723  00000+0 -25133-1 0  9996
2 64214  53.1588 172.5886 0000861  73.9367 316.8823 15.56259603  3619
STARLINK-34349          
1 64215U 25117N   25173.58335648 -.01606389  00000+0 -24942-1 0  9990
2 64215  53.1585 172.5841 0000715  81.3538 311.3826 15.56256196  4606
STARLINK-34296          
1 64216U 25117P   25173.58335648 -.01602770  00000+0 -24879-1 0  9990
2 64216  53.1588 172.5812 0000942  76.6556 317.9964 15.56255180  3603
STARLINK-34320          
1 64217U 25117Q   25173.58335648 -.01601174  00000+0 -24856-1 0  9993
2 64217  53.1587 172.5728 0000641  73.5156 324.9715 15.56252755  4605
STARLINK-34300          
1 64218U 25117R   25173.58335648 -.01607819  00000+0 -24965-1 0  9997
2 64218  53.1583 172.5766 0000797  76.6442 319.9232 15.56257296  3611
STARLINK-34323          
1 64219U 25117S   25173.58335648 -.01621115  00000+0 -25188-1 0  9991
2 64219  53.1587 172.5684 0000914  79.6046 320.7949 15.56262871  3608
STARLINK-34328          
1 64220U 25117T   25173.58335648 -.01603686  00000+0 -24896-1 0  9991
2 64220  53.1588 172.5634 0000735  69.0173 333.3010 15.56255482  4601
STARLINK-34326          
1 64221U 25117U   25173.58335648 -.01596732  00000+0 -24780-1 0  9997
2 64221  53.1587 172.5591 0000715  70.0368 334.2007 15.56251746  4693
STARLINK-34318          
1 64222U 25117V   25173.58335648 -.01593292  00000+0 -24723-1 0  9993
2 64222  53.1588 172.5555 0000700  70.2278 335.9275 15.56249535  4600
STARLINK-34337          
1 64223U 25117W   25173.58335648 -.01593528  00000+0 -24726-1 0  9999
2 64223  53.1584 172.5518 0000824  67.7271 340.3452 15.56249707  4548
STARLINK-34304          
1 64224U 25117X   25173.58335648 -.01599466  00000+0 -24825-1 0  9997
2 64224  53.1583 172.5473 0000736  66.9954 342.9907 15.56253747  4697
STARLINK-34289          
1 64225U 25117Y   25173.58335648 -.01608952  00000+0 -24985-1 0  9996
2 64225  53.1583 172.5436 0000718  83.1092 328.7952 15.56257383  4693
STARLINK-34347          
1 64226U 25117Z   25173.58335648 -.01583446  00000+0 -24556-1 0  9991
2 64226  53.1584 172.5402 0000699  76.9540 336.8685 15.56247217  4603
STARLINK-34330          
1 64227U 25117AA  25173.58335648 -.01608244  00000+0 -24973-1 0  9999
2 64227  53.1587 172.5319 0000690  73.0065 344.6466 15.56257418  4603
STARLINK-34167          
1 64228U 25117AB  25173.58335648 -.01608372  00000+0 -24973-1 0  9992
2 64228  53.1582 172.5361 0000818  68.4664 347.2691 15.56258743  4691
STARLINK-34241          
1 64229U 25117AC  25173.58335648 -.00001169  00000+0 -19249-4 0  9996
2 64229  53.1587 174.7448 0001003  82.0121 324.6337 15.39618090  4696
2025-118A               
1 64230U 25118A   25173.41921913  .00012269  00000+0  41180-3 0  9996
2 64230  58.9903 141.1975 0010740 349.5135  10.5712 15.31253026  2973
2025-118B               
1 64231U 25118B   25173.41219791  .00006984  00000+0  23596-3 0  9999
2 64231  58.9940 141.1666 0012259 341.1974  18.8644 15.31677948  2965
STARLINK-11686 [DTC]    
1 64233U 25119A   25173.64703590  .00158541  00000+0  89475-3 0  9997
2 64233  42.9990 340.4417 0002362 269.7415  90.3184 15.77912318  4297
STARLINK-11682 [DTC]    
1 64234U 25119B   25173.51555511  .00296146  00000+0  16440-2 0  9997
2 64234  42.9989 341.1725 0001956 231.5116 128.5579 15.77885498  4277
STARLINK-11675 [DTC]    
1 64235U 25119C   25173.51067475  .00171628  00000+0  96668-3 0  9993
2 64235  42.9988 341.1333 0002334 256.6178 103.4432 15.77917086  4278
STARLINK-11691 [DTC]    
1 64236U 25119D   25173.56909776  .00083262  00000+0  47597-3 0  9991
2 64236  42.9996 340.7083 0002463 289.3996  70.6608 15.77886620  4289
STARLINK-11670 [DTC]    
1 64237U 25119E   25173.58335648 -.00065910  00000+0 -37833-3 0  9999
2 64237  42.9995 340.5546 0001827 254.5413 214.3539 15.77882757  4302
STARLINK-11708 [DTC]    
1 64238U 25119F   25173.58335648 -.00038212  00000+0 -21753-3 0  9999
2 64238  42.9999 340.4842 0002173 271.0500 225.5963 15.77870172  4304
STARLINK-11683 [DTC]    
1 64239U 25119G   25173.58335648 -.00074000  00000+0 -42539-3 0  9990
2 64239  43.0006 340.4161 0001282 264.6030 259.7887 15.77891691  4309
STARLINK-11684 [DTC]    
1 64240U 25119H   25173.58335648 -.00097394  00000+0 -56202-3 0  9995
2 64240  43.0023 340.3472 0002101 255.5941 296.5466 15.77900355  4305
STARLINK-11689 [DTC]    
1 64241U 25119J   25173.58335648 -.01067277  00000+0 -56437-2 0  9993
2 64241  43.0040 340.2472 0001685 266.7074 325.2393 15.82341584  4297
STARLINK-11690 [DTC]    
1 64242U 25119K   25171.77780159 -.00009318  00000+0 -37255-4 0  9994
2 64242  43.0047 351.3508 0002158 203.3553 156.7222 15.84371711  4018
STARLINK-11694 [DTC]    
1 64243U 25119L   25173.66778755 -.00125874  00000+0 -53081-3 0  9994
2 64243  43.0030 339.7092 0002929 239.3114 120.7470 15.84721968  4319
